CCSDS_OEM_VERS = 2.0
META_START
OBJECT_NAME   = RADIO-ASTRON
OBJECT_ID     = 2011-37A
CENTER_NAME   = Earth Barycenter
REF_FRAME     = EME2000
TIME_SYSTEM   = UTC
START_TIME    = 2012-03-14T00:00:00.000
STOP_TIME     = 2012-03-14T23:59:00.000
META_STOP

2012-03-14T11:47:00.000   35329.862  -33568.128   79401.701    -.159288    1.026769    2.275149
2012-03-14T11:48:00.000   35320.274  -33506.492   79538.139    -.160332    1.027760    2.272802
2012-03-14T11:49:00.000   35310.623  -33444.797   79674.437    -.161372    1.028747    2.270457
2012-03-14T11:50:00.000   35300.909  -33383.043   79810.594    -.162408    1.029728    2.268115
2012-03-14T11:51:00.000   35291.134  -33321.230   79946.611    -.163441    1.030705    2.265776
2012-03-14T11:52:00.000   35281.296  -33259.358   80082.487    -.164471    1.031677    2.263440
2012-03-14T11:53:00.000   35271.397  -33197.429   80218.224    -.165498    1.032645    2.261107
2012-03-14T11:54:00.000   35261.437  -33135.441   80353.820    -.166522    1.033608    2.258776
2012-03-14T11:55:00.000   35251.415  -33073.396   80489.277    -.167542    1.034567    2.256448
2012-03-14T11:56:00.000   35241.332  -33011.293   80624.594    -.168559    1.035520    2.254123
2012-03-14T11:57:00.000   35231.188  -32949.133   80759.772    -.169572    1.036470    2.251801
2012-03-14T11:58:00.000   35220.983  -32886.917   80894.810    -.170583    1.037415    2.249482
2012-03-14T11:59:00.000   35210.718  -32824.644   81029.710    -.171590    1.038355    2.247165
2012-03-14T12:00:00.000   35200.392  -32762.314   81164.470    -.172595    1.039291    2.244852
2012-03-14T12:01:00.000   35190.006  -32699.929   81299.092    -.173596    1.040222    2.242541
2012-03-14T12:02:00.000   35179.561  -32637.488   81433.575    -.174593    1.041149    2.240232
2012-03-14T12:03:00.000   35169.055  -32574.991   81567.920    -.175588    1.042072    2.237927
2012-03-14T12:04:00.000   35158.490  -32512.439   81702.126    -.176580    1.042990    2.235625
2012-03-14T12:05:00.000   35147.866  -32449.832   81836.195    -.177568    1.043904    2.233325
2012-03-14T12:06:00.000   35137.182  -32387.171   81970.125    -.178553    1.044813    2.231028
2012-03-14T12:07:00.000   35126.440  -32324.455   82103.918    -.179535    1.045719    2.228734
2012-03-14T12:08:00.000   35115.638  -32261.685   82237.573    -.180514    1.046619    2.226443
2012-03-14T12:09:00.000   35104.778  -32198.860   82371.091    -.181490    1.047516    2.224154
2012-03-14T12:10:00.000   35093.859  -32135.983   82504.472    -.182463    1.048408    2.221868
2012-03-14T12:11:00.000   35082.882  -32073.052   82637.716    -.183433    1.049296    2.219586
2012-03-14T12:12:00.000   35071.847  -32010.067   82770.822    -.184400    1.050180    2.217305
2012-03-14T12:13:00.000   35060.754  -31947.030   82903.792    -.185364    1.051059    2.215028
2012-03-14T12:14:00.000   35049.604  -31883.940   83036.626    -.186324    1.051934    2.212754
2012-03-14T12:15:00.000   35038.396  -31820.798   83169.323    -.187282    1.052805    2.210482
2012-03-14T12:16:00.000   35027.130  -31757.604   83301.884    -.188237    1.053672    2.208213
2012-03-14T12:17:00.000   35015.807  -31694.357   83434.308    -.189188    1.054535    2.205947
2012-03-14T12:18:00.000   35004.427  -31631.060   83566.597    -.190137    1.055393    2.203684
2012-03-14T12:19:00.000   34992.991  -31567.710   83698.750    -.191083    1.056248    2.201423
2012-03-14T12:20:00.000   34981.498  -31504.310   83830.768    -.192026    1.057098    2.199165
2012-03-14T12:21:00.000   34969.948  -31440.859   83962.650    -.192965    1.057944    2.196910
2012-03-14T12:22:00.000   34958.342  -31377.357   84094.397    -.193902    1.058787    2.194658
2012-03-14T12:23:00.000   34946.680  -31313.804   84226.009    -.194836    1.059625    2.192409
2012-03-14T12:24:00.000   34934.961  -31250.202   84357.487    -.195767    1.060459    2.190162
2012-03-14T12:25:00.000   34923.188  -31186.549   84488.829    -.196695    1.061289    2.187918
2012-03-14T12:26:00.000   34911.358  -31122.847   84620.037    -.197620    1.062115    2.185677
2012-03-14T12:27:00.000   34899.473  -31059.096   84751.110    -.198543    1.062937    2.183439
2012-03-14T12:28:00.000   34887.533  -30995.295   84882.050    -.199462    1.063755    2.181204
2012-03-14T12:29:00.000   34875.538  -30931.445   85012.855    -.200379    1.064569    2.178971
2012-03-14T12:30:00.000   34863.488  -30867.547   85143.526    -.201292    1.065379    2.176741
2012-03-14T12:31:00.000   34851.383  -30803.600   85274.064    -.202203    1.066186    2.174514
2012-03-14T12:32:00.000   34839.223  -30739.604   85404.468    -.203111    1.066988    2.172290
2012-03-14T12:33:00.000   34827.010  -30675.561   85534.739    -.204016    1.067787    2.170068
2012-03-14T12:34:00.000   34814.741  -30611.470   85664.876    -.204919    1.068581    2.167849
2012-03-14T12:35:00.000   34802.419  -30547.332   85794.881    -.205818    1.069372    2.165633
2012-03-14T12:36:00.000   34790.043  -30483.146   85924.752    -.206715    1.070159    2.163420
2012-03-14T12:37:00.000   34777.614  -30418.913   86054.491    -.207609    1.070942    2.161209
2012-03-14T12:38:00.000   34765.130  -30354.633   86184.097    -.208500    1.071721    2.159002
2012-03-14T12:39:00.000   34752.594  -30290.306   86313.571    -.209388    1.072497    2.156797
2012-03-14T12:40:00.000   34740.004  -30225.933   86442.913    -.210274    1.073269    2.154594
2012-03-14T12:41:00.000   34727.361  -30161.514   86572.123    -.211157    1.074037    2.152395
2012-03-14T12:42:00.000   34714.665  -30097.049   86701.200    -.212037    1.074801    2.150198
2012-03-14T12:43:00.000   34701.917  -30032.538   86830.146    -.212914    1.075562    2.148004
2012-03-14T12:44:00.000   34689.115  -29967.981   86958.961    -.213789    1.076319    2.145813
2012-03-14T12:45:00.000   34676.262  -29903.380   87087.644    -.214661    1.077072    2.143625
2012-03-14T12:46:00.000   34663.356  -29838.733   87216.196    -.215530    1.077821    2.141439
2012-03-14T12:47:00.000   34650.398  -29774.041   87344.617    -.216396    1.078567    2.139256
2012-03-14T12:48:00.000   34637.389  -29709.305   87472.907    -.217260    1.079309    2.137076
2012-03-14T12:49:00.000   34624.327  -29644.524   87601.066    -.218121    1.080048    2.134898
2012-03-14T12:50:00.000   34611.214  -29579.699   87729.095    -.218980    1.080783    2.132724
2012-03-14T12:51:00.000   34598.050  -29514.830   87856.993    -.219836    1.081514    2.130552
2012-03-14T12:52:00.000   34584.834  -29449.918   87984.761    -.220689    1.082242    2.128382
2012-03-14T12:53:00.000   34571.567  -29384.961   88112.399    -.221539    1.082966    2.126216
2012-03-14T12:54:00.000   34558.249  -29319.962   88239.907    -.222387    1.083687    2.124052
2012-03-14T12:55:00.000   34544.881  -29254.919   88367.285    -.223233    1.084404    2.121891
2012-03-14T12:56:00.000   34531.461  -29189.833   88494.534    -.224075    1.085118    2.119733
2012-03-14T12:57:00.000   34517.992  -29124.705   88621.653    -.224916    1.085828    2.117577
2012-03-14T12:58:00.000   34504.472  -29059.534   88748.643    -.225753    1.086534    2.115424
2012-03-14T12:59:00.000   34490.901  -28994.321   88875.504    -.226588    1.087237    2.113274
2012-03-14T13:00:00.000   34477.281  -28929.066   89002.236    -.227420    1.087937    2.111126
2012-03-14T13:01:00.000   34463.611  -28863.768   89128.839    -.228250    1.088633    2.108982
2012-03-14T13:02:00.000   34449.891  -28798.430   89255.314    -.229077    1.089326    2.106840
2012-03-14T13:03:00.000   34436.122  -28733.049   89381.660    -.229902    1.090015    2.104700
2012-03-14T13:04:00.000   34422.303  -28667.628   89507.878    -.230724    1.090701    2.102564
2012-03-14T13:05:00.000   34408.435  -28602.165   89633.968    -.231544    1.091384    2.100430
2012-03-14T13:06:00.000   34394.518  -28536.662   89759.930    -.232361    1.092063    2.098299
2012-03-14T13:07:00.000   34380.552  -28471.118   89885.764    -.233176    1.092739    2.096170
2012-03-14T13:08:00.000   34366.537  -28405.533   90011.470    -.233988    1.093412    2.094044
2012-03-14T13:09:00.000   34352.473  -28339.908   90137.049    -.234797    1.094081    2.091921
2012-03-14T13:10:00.000   34338.361  -28274.244   90262.501    -.235604    1.094747    2.089801
2012-03-14T13:11:00.000   34324.201  -28208.539   90387.825    -.236409    1.095409    2.087683
2012-03-14T13:12:00.000   34309.992  -28142.795   90513.023    -.237211    1.096068    2.085568
2012-03-14T13:13:00.000   34295.735  -28077.011   90638.093    -.238011    1.096724    2.083456
2012-03-14T13:14:00.000   34281.431  -28011.188   90763.037    -.238808    1.097377    2.081346
2012-03-14T13:15:00.000   34267.078  -27945.326   90887.855    -.239603    1.098026    2.079239
2012-03-14T13:16:00.000   34252.679  -27879.425   91012.546    -.240395    1.098673    2.077135
2012-03-14T13:17:00.000   34238.231  -27813.485   91137.111    -.241185    1.099316    2.075033
2012-03-14T13:18:00.000   34223.736  -27747.507   91261.550    -.241973    1.099955    2.072934
2012-03-14T13:19:00.000   34209.194  -27681.490   91385.863    -.242758    1.100592    2.070838
2012-03-14T13:20:00.000   34194.605  -27615.436   91510.051    -.243541    1.101225    2.068744
2012-03-14T13:21:00.000   34179.970  -27549.343   91634.113    -.244321    1.101856    2.066653
2012-03-14T13:22:00.000   34165.287  -27483.213   91758.049    -.245099    1.102483    2.064565
2012-03-14T13:23:00.000   34150.558  -27417.046   91881.861    -.245875    1.103107    2.062479
2012-03-14T13:24:00.000   34135.782  -27350.841   92005.547    -.246648    1.103727    2.060396
2012-03-14T13:25:00.000   34120.960  -27284.598   92129.108    -.247419    1.104345    2.058316
2012-03-14T13:26:00.000   34106.092  -27218.319   92252.545    -.248188    1.104960    2.056238
2012-03-14T13:27:00.000   34091.177  -27152.003   92375.857    -.248954    1.105571    2.054163
